NORAD_CAT_ID,OBJECT_NAME,OBJECT_TYPE,EPOCH,MEAN_MOTION,ECCENTRICITY,INCLINATION,RA_OF_ASC_NODE,ARG_OF_PERICENTER,MEAN_ANOMALY,BSTAR,MEAN_MOTION_DOT,MEAN_MOTION_DDOT,TLE_LINE0,TLE_LINE1,TLE_LINE2,SEMIMAJOR_AXIS,PERIOD,APOGEE,PERIGEE,DECAYED
53965.0,STARLINK-4578,PAYLOAD,2022-12-14 12:25:20,15.08826957,0.0001877,53.2164,126.7234,52.9888,307.1275,2.1386e-05,5.2e-07,0.0,0 STARLINK-4578,1 53965U 22125B   22348.51759363  .00000052  00000-0  21386-4 0  9999,2 53965  53.2164 126.7234 0001877  52.9888 307.1275 15.08826957 11007,6917.92,95.438,541.0840000000002,538.487,0.0
53965.0,STARLINK-4578,PAYLOAD,2022-12-14 15:36:06,15.08826745,0.0001465,53.2172,126.1286,49.5184,310.5936,7.6941e-06,-1.66e-06,0.0,0 STARLINK-4578,1 53965U 22125B   22348.65007353 -.00000166  00000-0  76941-5 0  9994,2 53965  53.2172 126.1286 0001465  49.5184 310.5936 15.08826745 11097,6917.920999999999,95.438,540.799,538.7719999999998,0.0
53965.0,STARLINK-4578,PAYLOAD,2022-12-15 09:05:20,15.0883908,0.0001938,53.217,122.8584,48.7109,311.405,2.8611e-05,1.67e-06,0.0,0 STARLINK-4578,1 53965U 22125B   22349.37871037  .00000167  00000-0  28611-4 0  9992,2 53965  53.2170 122.8584 0001938  48.7109 311.4050 15.08839080 11208,6917.8830000000025,95.438,541.089,538.408,0.0
53965.0,STARLINK-4578,PAYLOAD,2022-12-15 13:51:29,15.08847464,0.0001797,53.2172,121.9663,47.7773,312.3371,7.6054e-05,9.23e-06,0.0,0 STARLINK-4578,1 53965U 22125B   22349.57742293  .00000923  00000-0  76054-4 0  9999,2 53965  53.2172 121.9663 0001797  47.7773 312.3371 15.08847464 11163,6917.858,95.437,540.966,538.479,0.0
53965.0,STARLINK-4578,PAYLOAD,2022-12-15 18:37:38,15.08850279,0.0001848,53.217,121.0742,46.3657,313.7488,0.00012326,1.675e-05,0.0,0 STARLINK-4578,1 53965U 22125B   22349.77613953  .00001675  00000-0  12326-3 0  9997,2 53965  53.2170 121.0742 0001848  46.3657 313.7488 15.08850279 11266,6917.849,95.437,540.992,538.436,0.0
53965.0,STARLINK-4578,PAYLOAD,2022-12-16 02:34:34,15.08838863,0.0001727,53.2169,119.587,46.0051,314.1083,0.00013454,1.854e-05,0.0,0 STARLINK-4578,1 53965U 22125B   22350.10734429  .00001854  00000-0  13454-3 0  9990,2 53965  53.2169 119.5870 0001727  46.0051 314.1083 15.08838863 11316,6917.884,95.438,540.944,538.554,0.0
53965.0,STARLINK-4578,PAYLOAD,2022-12-16 13:42:17,15.08836533,0.0001863,53.2171,117.5057,48.4004,311.7147,-8.3313e-06,-4.21e-06,0.0,0 STARLINK-4578,1 53965U 22125B   22350.57103164 -.00000421  00000-0 -83313-5 0  9991,2 53965  53.2171 117.5057 0001863  48.4004 311.7147 15.08836533 11315,6917.891,95.438,541.045,538.467,0.0
53965.0,STARLINK-4578,PAYLOAD,2022-12-16 18:28:26,15.08833721,0.0001884,53.2171,116.6137,47.8163,312.2988,9.6532e-05,1.248e-05,0.0,0 STARLINK-4578,1 53965U 22125B   22350.76975183  .00001248  00000-0  96532-4 0  9992,2 53965  53.2171 116.6137 0001884  47.8163 312.2988 15.08833721 11412,6917.9,95.438,541.068,538.461,0.0
53965.0,STARLINK-4578,PAYLOAD,2022-12-16 20:03:49,15.088372,0.0001901,53.2172,116.3166,47.3604,312.7549,0.00012591,1.716e-05,0.0,0 STARLINK-4578,1 53965U 22125B   22350.83598905  .00001716  00000-0  12591-3 0  9995,2 53965  53.2172 116.3166 0001901  47.3604 312.7549 15.08837200 11354,6917.889,95.438,541.069,538.439,0.0
53965.0,STARLINK-4578,PAYLOAD,2022-12-17 13:33:04,15.08838921,0.0001978,53.2172,113.0462,46.5529,313.5627,-5.124299999999999e-06,-3.700000000000001e-06,0.0,0 STARLINK-4578,1 53965U 22125B   22351.56463224 -.00000370  00000-0 -51243-5 0  9997,2 53965  53.2172 113.0462 0001978  46.5529 313.5627 15.08838921 11467,6917.884,95.438,541.117,538.38,0.0
53965.0,STARLINK-4578,PAYLOAD,2022-12-17 15:08:28,15.08828752,0.0002006,53.2172,112.7494,44.9038,315.2116,-8.8291e-05,-1.693e-05,0.0,0 STARLINK-4578,1 53965U 22125B   22351.63088112 -.00001693  00000-0 -88291-4 0  9995,2 53965  53.2172 112.7494 0002006  44.9038 315.2116 15.08828752 11540,6917.915,95.438,541.168,538.3919999999998,0.0
53965.0,STARLINK-4578,PAYLOAD,2022-12-18 00:40:46,15.08835881,0.0001971,53.2179,110.9655,44.6499,315.4651,-0.00010781,-2.003e-05,0.0,0 STARLINK-4578,1 53965U 22125B   22352.02831836 -.00002003  00000-0 -10781-3 0  9992,2 53965  53.2179 110.9655 0001971  44.6499 315.4651 15.08835881 11608,6917.893,95.438,541.121,538.394,0.0
53965.0,STARLINK-4578,PAYLOAD,2022-12-18 11:48:29,15.08824565,0.0001885,53.2172,108.8819,43.9902,316.124,-2.6135e-05,-7.04e-06,0.0,0 STARLINK-4578,1 53965U 22125B   22352.49200558 -.00000704  00000-0 -26135-4 0  9991,2 53965  53.2172 108.8819 0001885  43.9902 316.1240 15.08824565 11603,6917.928000000001,95.439,541.097,538.489,0.0
53965.0,STARLINK-4578,PAYLOAD,2022-12-18 14:59:15,15.0882385,0.000193,53.2176,108.2881,42.7615,317.3527,-2.215e-05,-6.4e-06,0.0,0 STARLINK-4578,1 53965U 22125B   22352.62448737 -.00000640  00000-0 -22150-4 0  9991,2 53965  53.2176 108.2881 0001930  42.7615 317.3527 15.08823850 11695,6917.93,95.439,541.13,538.46,0.0
53965.0,STARLINK-4578,PAYLOAD,2022-12-19 00:31:34,15.08833101,0.0001982,53.2176,106.5042,46.5716,313.5441,-1.5713e-06,-3.13e-06,0.0,0 STARLINK-4578,1 53965U 22125B   22353.02192340 -.00000313  00000-0 -15713-5 0  9997,2 53965  53.2176 106.5042 0001982  46.5716 313.5441 15.08833101 11756,6917.901,95.438,541.138,538.395,0.0
53965.0,STARLINK-4578,PAYLOAD,2022-12-19 06:53:06,15.08835864,0.0001947,53.217,105.313,44.6473,315.4676,3.9615e-05,3.42e-06,0.0,0 STARLINK-4578,1 53965U 22125B   22353.28688177  .00000342  00000-0  39615-4 0  9999,2 53965  53.2170 105.3130 0001947  44.6473 315.4676 15.08835864 11721,6917.893,95.438,541.105,538.411,0.0
53965.0,STARLINK-4578,PAYLOAD,2022-12-19 14:50:01,15.08847061,0.0001982,53.2186,103.8296,43.6334,316.4815,0.00013952,1.933e-05,0.0,0 STARLINK-4578,1 53965U 22125B   22353.61807180  .00001933  00000-0  13952-3 0  9995,2 53965  53.2186 103.8296 0001982  43.6334 316.4815 15.08847061 11849,6917.859,95.437,541.095,538.3530000000002,0.0
53965.0,STARLINK-4578,PAYLOAD,2022-12-19 18:00:47,15.08853164,0.0002014,53.2184,103.2324,46.9748,313.1413,0.00017326,2.471e-05,0.0,0 STARLINK-4578,1 53965U 22125B   22353.75054563  .00002471  00000-0  17326-3 0  9996,2 53965  53.2184 103.2324 0002014  46.9748 313.1413 15.08853164 11798,6917.84,95.437,541.0980000000002,538.312,0.0
53965.0,STARLINK-4578,PAYLOAD,2022-12-20 00:22:19,15.08853361,0.0002103,53.2178,102.0434,42.2918,317.8236,0.00025656,3.799e-05,0.0,0 STARLINK-4578,1 53965U 22125B   22354.01550293  .00003799  00000-0  25656-3 0  9996,2 53965  53.2178 102.0434 0002103  42.2918 317.8236 15.08853361 11903,6917.84,95.437,541.159,538.25,0.0
53965.0,STARLINK-4578,PAYLOAD,2022-12-20 09:54:38,15.08844993,0.0002067,53.2174,100.2596,35.9745,324.1386,0.00021148,3.08e-05,0.0,0 STARLINK-4578,1 53965U 22125B   22354.41294730  .00003080  00000-0  21148-3 0  9996,2 53965  53.2174 100.2596 0002067  35.9745 324.1386 15.08844993 11968,6917.865,95.437,541.16,538.3,0.0
53965.0,STARLINK-4578,PAYLOAD,2022-12-20 11:30:01,15.08843858,0.0002046,53.2175,99.9621,36.8128,323.3005,0.00018738,2.696e-05,0.0,0 STARLINK-4578,1 53965U 22125B   22354.47918791  .00002696  00000-0  18738-3 0  9995,2 53965  53.2175  99.9621 0002046  36.8128 323.3005 15.08843858 11906,6917.869000000002,95.437,541.149,538.318,0.0
53965.0,STARLINK-4578,PAYLOAD,2022-12-21 06:34:40,15.08839654,0.0002109,53.2178,96.3958,43.7079,316.408,-7.0438e-05,-1.409e-05,0.0,0 STARLINK-4578,1 53965U 22125B   22355.27407844 -.00001409  00000-0 -70438-4 0  9995,2 53965  53.2178  96.3958 0002109  43.7079 316.4080 15.08839654 12091,6917.880999999999,95.438,541.205,538.2869999999998,0.0
53965.0,STARLINK-4578,PAYLOAD,2022-12-21 12:56:13,15.08829132,0.0001972,53.2188,95.2031,43.0288,317.0858,-6.5367e-05,-1.328e-05,0.0,0 STARLINK-4578,1 53965U 22125B   22355.53904585 -.00001328  00000-0 -65367-4 0  9993,2 53965  53.2188  95.2031 0001972  43.0288 317.0858 15.08829132 12061,6917.9140000000025,95.438,541.143,538.414,0.0
53965.0,STARLINK-4578,PAYLOAD,2022-12-21 14:31:36,15.08836099,0.0001999,53.2188,94.9064,37.1427,322.9703,-0.00016184,-2.863e-05,0.0,0 STARLINK-4578,1 53965U 22125B   22355.60528453 -.00002863  00000-0 -16184-3 0  9994,2 53965  53.2188  94.9064 0001999  37.1427 322.9703 15.08836099 12144,6917.892,95.438,541.14,538.374,0.0
53965.0,STARLINK-4578,PAYLOAD,2022-12-22 00:03:54,15.08843695,0.0002019,53.2184,93.1234,38.2665,321.847,-0.000131,-2.373e-05,0.0,0 STARLINK-4578,1 53965U 22125B   22356.00271865 -.00002373  00000-0 -13100-3 0  9992,2 53965  53.2184  93.1234 0002019  38.2665 321.8470 15.08843695 12206,6917.869000000002,95.437,541.131,538.337,0.0
53965.0,STARLINK-4578,PAYLOAD,2022-12-22 12:46:59,15.08844086,0.0001763,53.2185,90.7427,31.5292,328.5805,7.7456e-05,9.45e-06,0.0,0 STARLINK-4578,1 53965U 22125B   22356.53262985  .00000945  00000-0  77456-4 0  9999,2 53965  53.2185  90.7427 0001763  31.5292 328.5805 15.08844086 12213,6917.868,95.437,540.953,538.513,0.0
53965.0,STARLINK-4578,PAYLOAD,2022-12-22 19:08:31,15.08843624,0.0002398,53.2167,89.5568,28.4433,331.6689,6.2995e-05,7.14e-06,0.0,0 STARLINK-4578,1 53965U 22125B   22356.79759166  .00000714  00000-0  62995-4 0  9995,2 53965  53.2167  89.5568 0002398  28.4433 331.6689 15.08843624 12258,6917.869000000002,95.437,541.393,538.075,0.0
53965.0,STARLINK-4578,PAYLOAD,2022-12-23 06:16:14,15.08827654,0.000198,53.2197,87.4719,39.9099,320.2038,9.9344e-05,1.293e-05,0.0,0 STARLINK-4578,1 53965U 22125B   22357.26128237  .00001293  00000-0  99344-4 0  9998,2 53965  53.2197  87.4719 0001980  39.9099 320.2038 15.08827654 12399,6917.918000000002,95.438,541.153,538.413,0.0
53965.0,STARLINK-4578,PAYLOAD,2022-12-23 12:37:47,15.088312599999998,0.000202,53.2191,86.28299999999999,40.8319,319.2824,0.00013425,1.849e-05,0.0,0 STARLINK-4578,1 53965U 22125B   22357.52624047  .00001849  00000-0  13425-3 0  9999,2 53965  53.2191  86.2830 0002020  40.8319 319.2824 15.08831260 12362,6917.906999999997,95.438,541.17,538.375,0.0
